     2.10           NAVIGATION DATA     GPS(GPS)            RINEX VERSION / TYPE
cnvtToRINEX 2.11.0  Stan Thomas         31-Mar-11 19:16 UTC PGM / RUN BY / DATE 
----------------------------------------------------------- COMMENT             
    0.2142D-07  0.7451D-08 -0.1192D-06  0.0000D+00          ION ALPHA           
    0.1229D+06  0.0000D+00 -0.2621D+06  0.1966D+06          ION BETA            
    0.931322574615D-09-0.266453525910D-14   589824       93 DELTA-UTC: A0,A1,T,W
    15                                                      LEAP SECONDS        
                                                            END OF HEADER       
12 11  3 31 14  0  0.0-0.152131542563D-04 0.284217094304D-11 0.000000000000D+00
    0.620000000000D+02 0.862500000000D+01 0.455161816459D-08-0.180241055978D+01
    0.480562448502D-06 0.370829156600D-02 0.376813113689D-05 0.515377048683D+04
    0.396000000000D+06-0.670552253723D-07-0.194531126947D+01 0.149011611938D-07
    0.974194924455D+00 0.315187500000D+03-0.250681166997D+00-0.825105797540D-08
    0.206794328100D-09 0.100000000000D+01 0.162900000000D+04 0.000000000000D+00
    0.240000000000D+01 0.000000000000D+00-0.121071934700D-07 0.620000000000D+02
    0.388818000000D+06 0.400000000000D+01 0.000000000000D+00 0.000000000000D+00
10 11  3 31 14  0  0.0-0.703292898834D-04-0.102318153949D-11 0.000000000000D+00
    0.590000000000D+02 0.149062500000D+02 0.530914971882D-08 0.186491703360D+01
    0.700354576111D-06 0.101225028047D-01 0.403262674809D-05 0.515358490944D+04
    0.396000000000D+06-0.277534127235D-06 0.120274046295D+01-0.745058059692D-08
    0.949554079459D+00 0.298937500000D+03 0.704697838248D+00-0.857892877539D-08
    0.357157734196D-11 0.100000000000D+01 0.162900000000D+04 0.000000000000D+00
    0.240000000000D+01 0.000000000000D+00-0.279396772385D-08 0.590000000000D+02
    0.388818000000D+06 0.400000000000D+01 0.000000000000D+00 0.000000000000D+00
25 11  3 31 14  0  0.0-0.953674316406D-06-0.341060513165D-12 0.000000000000D+00
    0.520000000000D+02 0.205625000000D+02 0.476912722472D-08 0.278692329331D+01
    0.111944973469D-05 0.568699673750D-03 0.369176268578D-05 0.515367266083D+04
    0.396000000000D+06 0.223517417908D-07-0.197448643052D+01 0.298023223877D-07
    0.962982990095D+00 0.310625000000D+03 0.843974068919D+00-0.839177812267D-08
    0.226438003480D-09 0.100000000000D+01 0.162900000000D+04 0.000000000000D+00
    0.240000000000D+01 0.000000000000D+00 0.465661287308D-08 0.520000000000D+02
    0.388818000000D+06 0.400000000000D+01 0.000000000000D+00 0.000000000000D+00
 2 11  3 31 13 59 44.0 0.328100752085D-03 0.227373675443D-11 0.000000000000D+00
    0.200000000000D+01 0.465312500000D+02 0.508485466175D-08-0.182293598654D+00
    0.243820250034D-05 0.101504189661D-01 0.104848295450D-04 0.515373575020D+04
    0.395984000000D+06 0.154599547386D-06 0.117355263449D+00 0.577419996262D-07
    0.939649682261D+00 0.166687500000D+03-0.304086878645D+01-0.837106297409D-08
    0.322513433979D-09 0.100000000000D+01 0.162900000000D+04 0.000000000000D+00
    0.240000000000D+01 0.000000000000D+00-0.172294676304D-07 0.200000000000D+01
    0.388818000000D+06 0.400000000000D+01 0.000000000000D+00 0.000000000000D+00
 5 11  3 31 14  0  0.0-0.137517694384D-03-0.579802872380D-11 0.000000000000D+00
    0.390000000000D+02 0.183125000000D+02 0.519593071708D-08 0.159642938427D+01
    0.115670263767D-05 0.225138862152D-02 0.388175249100D-05 0.515363467598D+04
    0.396000000000D+06 0.372529029846D-08 0.117872286348D+01 0.558793544769D-07
    0.954613293441D+00 0.302281250000D+03 0.276665790024D+00-0.852892669260D-08
    0.150006248362D-10 0.100000000000D+01 0.162900000000D+04 0.000000000000D+00
    0.240000000000D+01 0.000000000000D+00-0.977888703346D-08 0.390000000000D+02
    0.388818000000D+06 0.400000000000D+01 0.000000000000D+00 0.000000000000D+00
21 11  3 31 13 59 44.0-0.134216621518D-03-0.261479726760D-11 0.000000000000D+00
    0.500000000000D+01 0.442812500000D+02 0.499806533234D-08-0.261516245320D+01
    0.200048089027D-05 0.175507378299D-01 0.109411776066D-04 0.515378314209D+04
    0.395984000000D+06 0.201165676117D-06 0.143534400452D+00-0.324100255966D-06
    0.932349271930D+00 0.151718750000D+03-0.238770123105D+01-0.805569269479D-08
    0.437518224390D-09 0.100000000000D+01 0.162900000000D+04 0.000000000000D+00
    0.240000000000D+01 0.000000000000D+00-0.116415321827D-07 0.500000000000D+01
    0.388818000000D+06 0.400000000000D+01 0.000000000000D+00 0.000000000000D+00
31 11  3 31 13 59 28.0 0.603087246418D-04 0.511590769747D-11 0.000000000000D+00
    0.700000000000D+01 0.514375000000D+02 0.390159108836D-08-0.181456777329D+01
    0.276416540146D-05 0.779200228862D-02 0.107288360596D-04 0.515363323784D+04
    0.395968000000D+06-0.121071934700D-06-0.299877954197D+01 0.108033418655D-06
    0.979647533201D+00 0.187093750000D+03-0.969089905044D+00-0.775960893314D-08
    0.278583032673D-09 0.100000000000D+01 0.162900000000D+04 0.000000000000D+00
    0.240000000000D+01 0.000000000000D+00-0.130385160446D-07 0.700000000000D+01
    0.388818000000D+06 0.400000000000D+01 0.000000000000D+00 0.000000000000D+00
30 11  3 31 14  0  0.0 0.333372969180D-03 0.284217094304D-11 0.000000000000D+00
    0.122000000000D+03 0.220625000000D+02 0.497270713321D-08 0.812587462889D+00
    0.104866921902D-05 0.125958131393D-01 0.372715294361D-05 0.515365287018D+04
    0.396000000000D+06-0.135973095894D-06-0.200353073793D+01-0.633299350739D-07
    0.959618086871D+00 0.310343750000D+03 0.151986321588D+01-0.867607567909D-08
    0.153934983439D-09 0.100000000000D+01 0.162900000000D+04 0.000000000000D+00
    0.340000000000D+01 0.000000000000D+00-0.791624188423D-08 0.122000000000D+03
    0.389328000000D+06 0.400000000000D+01 0.000000000000D+00 0.000000000000D+00
15 11  3 31 14  0  0.0-0.138915609568D-03 0.306954461848D-11 0.000000000000D+00
    0.670000000000D+02-0.641250000000D+02 0.477698469487D-08 0.269694463114D+00
   -0.341609120369D-05 0.339975836687D-02 0.869669020176D-05 0.515359136963D+04
    0.396000000000D+06 0.689178705215D-07 0.221024779342D+01-0.204890966415D-07
    0.950359360271D+00 0.203593750000D+03-0.668795177775D-01-0.826320133836D-08
   -0.535379443560D-09 0.100000000000D+01 0.162900000000D+04 0.000000000000D+00
    0.240000000000D+01 0.000000000000D+00-0.977888703346D-08 0.670000000000D+02
    0.389568000000D+06 0.400000000000D+01 0.000000000000D+00 0.000000000000D+00
18 11  3 31 14  0  0.0 0.129398424178D-03 0.204636307899D-11 0.000000000000D+00
    0.650000000000D+02 0.229375000000D+02 0.551380110052D-08 0.239260992393D+01
    0.964850187302D-06 0.120524246013D-01 0.346265733242D-05 0.515376823807D+04
    0.396000000000D+06-0.558793544769D-07 0.119803252924D+01-0.214204192162D-06
    0.933469842309D+00 0.298812500000D+03-0.226915185926D+01-0.857678582898D-08
    0.603596570791D-10 0.100000000000D+01 0.162900000000D+04 0.000000000000D+00
    0.240000000000D+01 0.000000000000D+00-0.107102096081D-07 0.650000000000D+02
    0.391092000000D+06 0.400000000000D+01 0.000000000000D+00 0.000000000000D+00
16 11  3 31 14  0  0.0-0.161727890372D-03-0.272848410532D-11 0.000000000000D+00
    0.680000000000D+02 0.108437500000D+02 0.452090259945D-08 0.211467080416D+01
    0.616535544395D-06 0.631466042250D-02 0.348687171936D-05 0.515377357292D+04
    0.396000000000D+06 0.298023223877D-07-0.192753107578D+01 0.113621354103D-06
    0.975227630511D+00 0.320343750000D+03-0.152142726841D+00-0.824712924032D-08
    0.989326923723D-10 0.100000000000D+01 0.162900000000D+04 0.000000000000D+00
    0.240000000000D+01 0.000000000000D+00-0.977888703346D-08 0.680000000000D+02
    0.392028000000D+06 0.400000000000D+01 0.000000000000D+00 0.000000000000D+00
 6 11  3 31 14  0  0.0-0.216329004616D-03-0.117097442853D-09 0.000000000000D+00
    0.390000000000D+02-0.800312500000D+02 0.514735726523D-08 0.191838575606D+01
   -0.418536365032D-05 0.662153551821D-02 0.756233930588D-05 0.515365306664D+04
    0.396000000000D+06 0.912696123123D-07-0.966263109903D+00 0.186264514923D-07
    0.935588514880D+00 0.219968750000D+03-0.835348870696D+00-0.834177603988D-08
   -0.380372986919D-09 0.100000000000D+01 0.162900000000D+04 0.000000000000D+00
    0.240000000000D+01 0.000000000000D+00-0.465661287308D-08 0.390000000000D+02
    0.395898000000D+06 0.400000000000D+01 0.000000000000D+00 0.000000000000D+00
26 11  3 31 16  0  0.0-0.159895513207D-03-0.102318153949D-10 0.000000000000D+00
    0.181000000000D+03-0.441250000000D+02 0.401695303650D-08 0.644472706178D+00
   -0.211223959923D-05 0.204410931328D-01 0.970251858234D-05 0.515364636803D+04
    0.403200000000D+06-0.236555933952D-06 0.230343760758D+01 0.800937414169D-07
    0.987764904282D+00 0.212125000000D+03 0.113198027116D+01-0.807462205471D-08
   -0.610739725475D-09 0.100000000000D+01 0.162900000000D+04 0.000000000000D+00
    0.340000000000D+01 0.000000000000D+00-0.651925802231D-08 0.181000000000D+03
    0.396018000000D+06 0.400000000000D+01 0.000000000000D+00 0.000000000000D+00
29 11  3 31 16  0  0.0 0.196423847228D-03 0.272848410532D-11 0.000000000000D+00
    0.460000000000D+02-0.737500000000D+02 0.444518515980D-08-0.132826052382D+01
   -0.375881791115D-05 0.270098738838D-02 0.949576497078D-05 0.515355318260D+04
    0.403200000000D+06-0.186264514923D-07-0.876057544753D+00 0.316649675369D-07
    0.961441918544D+00 0.196781250000D+03-0.125473387055D+01-0.806783605776D-08
   -0.291797868838D-09 0.100000000000D+01 0.162900000000D+04 0.000000000000D+00
    0.240000000000D+01 0.000000000000D+00-0.884756445885D-08 0.460000000000D+02
    0.396018000000D+06 0.400000000000D+01 0.000000000000D+00 0.000000000000D+00
